SL-8 R/B                
1 19257U 88053B   24221.11787390  .00000720  00000+0  24480-3 0  9994
2 19257  74.0471  98.4550 0019264  61.9914  47.4224 14.38251986893394
COSMOS 1975             
1 19573U 88093A   24221.39843970  .00010696  00000+0  56462-3 0  9994
2 19573  82.5285 332.7961 0015024  43.0418 317.1986 15.15311516931423
SL-14 R/B               
1 19574U 88093B   24221.55994517  .00001140  00000+0  13174-3 0  9994
2 19574  82.5291 224.3256 0022024 146.4975 335.9442 14.84558980915226
SL-16 R/B               
1 19650U 88102B   24221.59111865  .00000243  00000+0  14738-3 0  9991
2 19650  70.9992 287.7476 0014126 179.8190 180.2940 14.15988883845050
INTERCOSMOS 24          
1 20261U 89080A   24221.24921031  .00001074  00000+0  31571-3 0  9990
2 20261  82.6070 120.3815 1194026 193.7602 162.8096 12.58136763594010
SL-14 R/B               
1 20262U 89080C   24220.88966825  .00000930  00000+0  27193-3 0  9995
2 20262  82.5943 184.7432 1234488  67.2960 305.3764 12.49749006587408
DELTA 1 R/B             
1 20323U 89089B   24221.38697296  .00001024  00000+0  26703-3 0  9992
2 20323  97.1155 147.9949 0071034 146.6128 213.9579 14.49622119811911
ARIANE 40 R/B           
1 20443U 90005H   24221.52348528  .00000976  00000+0  32974-3 0  9994
2 20443  98.3904 285.9410 0011198 138.0211 222.1837 14.39040880809620
DELTA 2 R/B(1)          
1 20453U 90008B   24221.45095048  .00018631  00000+0  67484-3 0  9997
2 20453  35.6163 232.5506 0195108 120.8023 241.2060 15.11476846837436
COSMOS 2058             
1 20465U 90010A   24221.53999019  .00005555  00000+0  39783-3 0  9995
2 20465  82.4835 253.4755 0015481 125.1852 235.0826 15.04127655855092
SL-14 R/B               
1 20466U 90010B   24221.58003005  .00001075  00000+0  13044-3 0  9997
2 20466  82.5008  89.9857 0021324  47.3464 312.9543 14.82542541842792
SL-14 R/B               
1 20511U 90018B   24221.58684565  .00001135  00000+0  14280-3 0  9992
2 20511  82.5202  43.1069 0016271 188.2146 171.8804 14.81146157836970
HST                     
1 20580U 90037B   24221.58130848  .00010537  00000+0  48755-3 0  9999
2 20580  28.4698 353.9061 0001817 245.9930 114.0472 15.18491298685006
SL-16 R/B               
1 20625U 90046B   24220.84764144  .00000396  00000+0  22967-3 0  9998
2 20625  70.9984  73.4539 0012390 106.9189 253.3293 14.14851444766512
COSMOS 2084             
1 20663U 90055A   24221.33245739  .00006697  00000+0  50049-3 0  9991
2 20663  62.7912 140.5066 0106441 125.1461 235.9667 14.99253953849384
SL-6 R/B(2)             
1 20666U 90055D   24221.60197054  .00006264  00000+0  50325-3 0  9997
2 20666  62.7848  53.6135 0078595 148.7435 211.8371 14.98601488851383
SL-8 R/B                
1 20775U 90078B   24221.53365712  .00027657  00000+0  10644-2 0  9991
2 20775  82.9128  41.2420 0462412 123.7577 240.8585 14.62765739723977
SL-8 R/B                
1 21088U 91006B   24221.57892306  .00000019  00000+0  37778-5 0  9992
2 21088  82.9389 240.0681 0021788 211.2074 302.2082 13.77354875684481
OKEAN-3                 
1 21397U 91039A   24220.85298465  .00005386  00000+0  44409-3 0  9996
2 21397  82.5210 175.4081 0017697 130.5321 229.7448 14.98741247778132
COSMOS 2151             
1 21422U 91042A   24221.54370689  .00003344  00000+0  29427-3 0  9990
2 21422  82.4974 279.8042 0012875 203.6951 156.3680 14.96170908776619
SL-14 R/B               
1 21423U 91042B   24221.59218200  .00001050  00000+0  13285-3 0  9993
2 21423  82.4918  41.9797 0016848 344.9160  15.1549 14.80871333767482
ERS-1                   
1 21574U 91050A   24221.58420321  .00000823  00000+0  28191-3 0  9996
2 21574  98.7804 214.4690 0033536 115.4857 244.9805 14.38617786732582
ARIANE 40 R/B           
1 21610U 91050F   24221.19742013  .00001059  00000+0  33597-3 0  9997
2 21610  98.2864 281.6167 0003783  45.5379 314.6119 14.41969985735594
INTERCOSMOS 25          
1 21819U 91086A   24221.52481696  .00002156  00000+0  43491-3 0  9994
2 21819  82.6074 298.8591 1498421 280.8623  62.7870 12.09007527426724
SL-8 R/B                
1 21876U 92008B   24221.45647682  .00000129  00000+0  11741-3 0  9994
2 21876  82.9306 337.7526 0033637 311.0012 119.5900 13.75837475629908
SL-8 R/B                
1 21938U 92020B   24221.55013449  .00000005  00000+0 -11122-4 0  9994
2 21938  82.9277 223.1118 0030578 110.6259   5.4095 13.75426617621650
USA 81                  
1 21949U 92023A   24221.59024444  .00000462  00000+0  16506-3 0  9996
2 21949  85.0065 104.9301 0002793  84.4296 275.7215 14.31943962 12041
COSMOS 2219             
1 22219U 92076A   24221.20468421  .00000310  00000+0  18792-3 0  9991
2 22219  71.0593 147.2197 0017927 358.1600   1.9453 14.13881028636602
SL-16 R/B               
1 22220U 92076B   24221.60354021 -.00000023  00000+0  12575-4 0  9993
2 22220  71.0025 325.9659 0015119 258.6415 193.3932 14.16681081639950
COSMOS 2221             
1 22236U 92080A   24221.57223209  .00004377  00000+0  42735-3 0  9999
2 22236  82.5056 111.2565 0014810 337.4716  22.5851 14.92127748694444
SL-16 R/B               
1 22285U 92093B   24221.20643613 -.00000083  00000+0 -18207-4 0  9992
2 22285  71.0223 138.5280 0002125 128.4733 231.6581 14.15278570631300
COSMOS 2228             
1 22286U 92094A   24221.56168960  .00004063  00000+0  39060-3 0  9999
2 22286  82.5165  69.1812 0021031  85.3516 275.0105 14.92632298689662
SL-16 R/B               
1 22566U 93016B   24221.54465744  .00000374  00000+0  21682-3 0  9995
2 22566  71.0094 349.3343 0008737 131.1176 229.0702 14.15149251620371
COSMOS 2242             
1 22626U 93024A   24221.54140645  .00004676  00000+0  45413-3 0  9998
2 22626  82.5189  98.0817 0019303  86.6914 273.6513 14.92286914694020
SL-16 R/B               
1 22803U 93059B   24221.24667033  .00000038  00000+0  42767-4 0  9993
2 22803  70.9908 150.8114 0016960   4.0253 356.1004 14.17051664597584
ARIANE 40 R/B           
1 22830U 93061H   24221.18848638  .00000714  00000+0  28119-3 0  9996
2 22830  98.5684 288.1974 0010735 188.4528 171.6476 14.32187757611272
COSMOS 2278             
1 23087U 94023A   24221.53185257  .00000104  00000+0  79414-4 0  9998
2 23087  71.0556 304.5222 0009434 206.9182 153.1452 14.14127773563060
SL-16 R/B               
1 23088U 94023B   24221.36156037  .00000354  00000+0  20773-3 0  9994
2 23088  70.9973 205.3148 0001260 110.0015 250.1243 14.14860527564288
SL-16 R/B               
1 23343U 94074B   24221.60224001  .00001308  00000+0  18727-3 0  9994
2 23343  97.7841 262.8359 0005482 309.3072 168.2886 14.78208131601800
SL-16 R/B               
1 23405U 94077B   24221.14387635  .00000444  00000+0  25201-3 0  9993
2 23405  70.9831 129.5211 0004181 299.6537  60.4169 14.15407479534369
ARIANE 40+ R/B          
1 23561U 95021B   24221.20893781  .00000902  00000+0  30678-3 0  9990
2 23561  98.5245 287.3464 0007966  77.2254 347.5959 14.38947620536023
SL-16 R/B               
1 23705U 95058B   24221.54739830 -.00000153  00000+0 -53947-4 0  9996
2 23705  71.0233 313.9482 0014974 279.6959  80.2473 14.15357852486044
SL-16 R/B               
1 24298U 96051B   24221.55987346 -.00000142  00000+0 -50201-4 0  9994
2 24298  70.7996 318.1352 0017954 269.8842  90.0220 14.12459823440014
ORBVIEW 2 (SEASTAR)     
1 24883U 97037A   24221.38608676  .00000903  00000+0  33557-3 0  9993
2 24883  98.7824   2.1037 0001711 352.5963   7.5196 14.34628703425525
SL-16 R/B               
1 25400U 98043G   24220.84126603  .00000203  00000+0  10401-3 0  9998
2 25400  98.7460 161.7855 0008754 252.9587 107.0634 14.25779331356492
SL-16 R/B               
1 25407U 98045B   24221.55627328 -.00000095  00000+0 -24145-4 0  9998
2 25407  71.0132 317.2489 0008059 203.8932 156.1819 14.16022222345259
ISS (ZARYA)             
1 25544U 98067A   24221.49295699  .00019736  00000+0  35561-3 0  9992
2 25544  51.6388  56.2062 0005785 177.6877 182.4140 15.49771685466663
CZ-4B R/B               
1 25732U 99025C   24221.56454157  .00000292  00000+0  16292-3 0  9997
2 25732  98.7481 265.9382 0036821 204.0240 283.7385 14.17996233306229
OKEAN-O                 
1 25860U 99039A   24221.12395997  .00001854  00000+0  26023-3 0  9990
2 25860  98.0324 273.4012 0001845  82.1240 278.0180 14.78642637348833
SL-16 R/B               
1 25861U 99039B   24221.55249465  .00001563  00000+0  21229-3 0  9996
2 25861  98.0849 267.9025 0014473 334.6484  25.4016 14.80247619351283
DELTA 2 R/B             
1 25876U 99041E   24221.11782377  .00004863  00000+0  83509-3 0  9996
2 25876  51.7616  87.3541 0516566  84.3988 281.5599 14.08560827281374
HELIOS 1B               
1 25977U 99064A   24221.54483840  .00002714  00000+0  32815-3 0  9990
2 25977  98.2367  94.9349 0002328 113.4575 246.6883 14.84593403599388
TERRA                   
1 25994U 99068A   24221.53644766  .00001314  00000+0  28377-3 0  9991
2 25994  98.0448 283.4810 0002084 160.7656 337.9460 14.59916179310687
SL-16 R/B               
1 26070U 00006B   24221.49316594  .00000365  00000+0  21004-3 0  9996
2 26070  70.9999 233.4587 0017518 334.9466  25.0805 14.15656690266725
TITAN 4B R/B            
1 26474U 00047B   24221.52912528  .00007048  00000+0  52241-3 0  9994
2 26474  67.9906 218.8240 0050658 324.3578  35.4187 15.02618619305828
ENVISAT                 
1 27386U 02009A   24220.84043581  .00000322  00000+0  11890-3 0  9998
2 27386  98.2858 180.1443 0001312  83.1128 337.6321 14.38622801175934
IDEFIX & ARIANE 42P R/B 
1 27422U 02021B   24221.41226276  .00000870  00000+0  35213-3 0  9994
2 27422  98.5277 158.0575 0013266  89.9015 270.3687 14.30201599161339
AQUA                    
1 27424U 02022A   24221.62530417  .00002837  00000+0  60663-3 0  9997
2 27424  98.3326 171.2069 0001134  54.9821  60.9779 14.59581272184326
CZ-4B R/B               
1 27432U 02024C   24221.59447078  .00000172  00000+0  11259-3 0  9991
2 27432  98.9719 264.1608 0049599 221.7058 259.6630 14.14343985147512
